{"type":"Feature","properties":{"MUN":"WILDWOOD CITY","COUNTY":"CAPE MAY","MUN_LABEL":"Wildwood City","MUN_TYPE":"City","NAME":"Wildwood","GNIS_NAME":"City of Wildwood"},"geometry":{"type":"Polygon","coordinates":[[[-74.808611,38.9932553],[-74.8071219,38.9921589],[-74.8070179,38.9920823],[-74.8043889,38.9901496],[-74.8016683,38.9881592],[-74.8008577,38.9875662],[-74.8011661,38.9873052],[-74.8035451,38.9856096],[-74.8054155,38.9842934],[-74.807733,38.9827024],[-74.8102313,38.9812397],[-74.8125016,38.9799762],[-74.8158706,38.9779284],[-74.8167634,38.977381],[-74.8182265,38.976564],[-74.819254,38.9759371],[-74.8204988,38.9752065],[-74.8232237,38.9776032],[-74.8238077,38.9781168],[-74.8238702,38.9781684],[-74.8244323,38.9786428],[-74.8247517,38.9789075],[-74.8250943,38.9791913],[-74.8254523,38.9794914],[-74.8256272,38.9796366],[-74.8263903,38.9802692],[-74.8267015,38.9805272],[-74.8278216,38.9814629],[-74.8280308,38.9816368],[-74.8285127,38.9820372],[-74.8292373,38.9826406],[-74.8296642,38.982994],[-74.8300909,38.9833472],[-74.8302777,38.9835047],[-74.8308946,38.9840248],[-74.8314192,38.9844587],[-74.8318191,38.9847895],[-74.8322105,38.9851153],[-74.8322989,38.9851898],[-74.8333125,38.9860433],[-74.8333139,38.9860786],[-74.8307936,38.9879445],[-74.8310474,38.9881874],[-74.8350607,38.9896764],[-74.8336836,38.9913074],[-74.8335663,38.9915328],[-74.8324557,38.9936666],[-74.832175,38.9940626],[-74.8321178,38.9941177],[-74.8319767,38.9942667],[-74.831868,38.9944061],[-74.8317512,38.9945582],[-74.8315803,38.9948369],[-74.8314595,38.9950048],[-74.8313145,38.9951854],[-74.8311976,38.9953027],[-74.8310725,38.9954043],[-74.8308987,38.9954964],[-74.8306965,38.9955887],[-74.8304214,38.9956653],[-74.8301056,38.9957073],[-74.8296844,38.9957528],[-74.8289189,38.9957929],[-74.828441,38.9958259],[-74.8272499,38.9958545],[-74.8266099,38.9958753],[-74.8257591,38.9958776],[-74.824456,38.9967607],[-74.822869,38.9956573],[-74.821421,38.9969121],[-74.8210354,38.9966308],[-74.8185906,38.9963972],[-74.8170807,38.9976823],[-74.8170592,38.9985166],[-74.8164778,38.998997],[-74.8163679,38.9989161],[-74.8154039,38.9982481],[-74.8143625,38.9974909],[-74.8141568,38.9973414],[-74.8132656,38.9966796],[-74.8131073,38.9965776],[-74.812843,38.996363],[-74.8124907,38.9961127],[-74.8115703,38.9954319],[-74.8109262,38.9949554],[-74.8101109,38.9943577],[-74.8094498,38.9938729],[-74.8090304,38.9935576],[-74.808611,38.9932553]]]}}
